AKEBONO (EXOS-D)        
1 19822U 89016A   16092.11283802  .00018794 -13660-6  40964-3 0  9997
2 19822  75.0394  70.6244 1998987 110.3058 272.3265 11.48603366858022
HST                     
1 20580U 90037B   16092.52467593  .00001045  00000-0  54450-4 0  9995
2 20580  28.4705  44.9444 0003013 104.6401 211.2970 15.08273552223529
POLAR                   
1 23802U 96013A   16091.11568031  .00000000  00000-0  10000-3 0  9990
2 23802  78.1774 281.5647 7484986 341.8065   1.7423  1.29839052 96413
SWAS                    
1 25560U 98071A   16091.99172466  .00000469  00000-0  53727-4 0  9991
2 25560  69.8981 292.3577 0006552 153.4775 206.6717 14.92993444939533
ORSTED                  
1 25635U 99008B   16092.53854567  .00000158  00000-0  45637-4 0  9991
2 25635  96.4469  95.3257 0138147 215.3743 143.8232 14.47869201902322
CXO                     
1 25867U 99040B   16093.75081557  .00000476  00000-0  00000+0 0  9993
2 25867  76.1116 299.6368 7155850 262.9107 359.9743  0.37807143 14382
XMM-NEWTON              
1 25989U 99066A   16090.85137981  .00000165  00000-0  00000+0 0  9992
2 25989  67.3393  27.1403 8187911  94.7493   0.2762  0.50168355 18665
TERRA                   
1 25994U 99068A   16092.17909036  .00000016  00000-0  13527-4 0  9993
2 25994  98.2133 167.5388 0001734  85.9484 274.1906 14.57109617866301
CLUSTER II-FM6 (SALSA)  
1 26410U 00041A   16094.60086693  .00000520  00000-0  00000+0 0  9992
2 26410 131.5455 328.4639 5173264 141.4967   0.4021  0.44201475 15554
CLUSTER II-FM7 (SAMBA)  
1 26411U 00041B   16092.43257207  .00000294  00000-0  00000+0 0  9991
2 26411 130.5852 330.1559 5687680 147.9967   0.5658  0.44195324 15629
CLUSTER II-FM5 (RUMBA)  
1 26463U 00045A   16094.54073075  .00000482  00000-0  00000+0 0  9994
2 26463 134.0635 327.8931 5375313 145.6382   0.4469  0.44177248 16135
CLUSTER II-FM8 (TANGO)  
1 26464U 00045B   16092.33974625  .00000415  00000-0  00000+0 0  9997
2 26464 131.5372 328.4372 5176277 141.4516   0.4873  0.44214714 51467
ODIN                    
1 26702U 01007A   16092.03428272  .00001071  00000-0  76836-4 0  9994
2 26702  97.6304 107.6116 0013006 116.9228 243.3329 15.06413072825065
TIMED                   
1 26998U 01055B   16092.50445094  .00000268  00000-0  33513-4 0  9999
2 26998  74.0699 113.8798 0002682 264.5667  95.5207 14.87676737775791
RHESSI                  
1 27370U 02004A   16092.51845375  .00003990  00000-0  15868-3 0  9993
2 27370  38.0355 215.4794 0010706  65.2035 294.9846 15.25549164778727
INTEGRAL                
1 27540U 02048A   16093.46690424  .00001000  00000-0  00000-0 0  9997
2 27540  51.9369 208.8105 8064726 259.1807   0.3991  0.37596529  1966
CORIOLIS                
1 27640U 03001A   16091.61593770  .00000016  00000-0  28559-4 0  9998
2 27640  98.7503 101.7098 0014946 135.7266 331.5259 14.18894621685183
SORCE                   
1 27651U 03004A   16091.55595808  .00000490  00000-0  66333-4 0  9998
2 27651  39.9951 267.7264 0023166   2.3890 357.7006 14.88286608714813
MOST                    
1 27843U 03031D   16092.06142422  .00000017  00000-0  28154-4 0  9992
2 27843  98.7165 100.4798 0009460 202.3259 157.7507 14.20518765661186
SCISAT 1                
1 27858U 03036A   16092.17047600  .00000172  00000-0  29392-4 0  9994
2 27858  73.9347 340.2938 0008272 192.5255 167.5715 14.77011148680518
SWIFT                   
1 28485U 04047A   16091.07998702  .00001903  00000-0  10542-3 0  9999
2 28485  20.5576 350.8786 0011629  44.6342 315.5027 15.02990951621433
FORMOSAT-3 FM6          
1 29047U 06011A   16092.18981334  .00000187  00000-0  90098-4 0  9991
2 29047  71.9820   8.9852 0051387 196.1983 163.7514 14.28492116521647
FORMOSAT-3 FM1          
1 29048U 06011B   16092.50608876  .00000116  00000-0  62241-4 0  9996
2 29048  71.9664 280.9671 0043833 150.3052 241.4011 14.28434773524184
FORMOSAT-3 FM5          
1 29049U 06011C   16091.44657324  .00000090  00000-0  52216-4 0  9993
2 29049  72.0185  86.0821 0035799 194.5242 165.4869 14.28454510519800
FORMOSAT-3 FM3          
1 29050U 06011D   16092.14556351  .00000255  00000-0  64750-4 0  9990
2 29050  72.0180  27.1505 0052212 240.5334 119.0604 14.58253872532128
FORMOSAT-3 FM4          
1 29051U 06011E   16092.17503245  .00000146  00000-0  72817-4 0  9990
2 29051  72.0080 349.4486 0066798  64.0077 296.7919 14.28471394522492
FORMOSAT-3 FM2          
1 29052U 06011F   16092.41673312  .00000119  00000-0  63257-4 0  9999
2 29052  72.0345  58.6092 0039719 155.8747 204.4262 14.28570414520842
CLOUDSAT                
1 29107U 06016A   16092.20077965  .00000149  00000-0  43127-4 0  9991
2 29107  98.2099  36.6033 0001186  53.1362 306.9945 14.57120201528065
CALIPSO                 
1 29108U 06016B   16092.47434655  .00000259  00000-0  67613-4 0  9992
2 29108  98.2049  36.4352 0001402  79.3744 280.7613 14.57125405528037
HINODE (SOLAR-B)        
1 29479U 06041A   16092.54007265  .00000178  00000-0  42438-4 0  9990
2 29479  98.1579  94.5184 0017581 162.7249 197.4556 14.64666167508744
SJ-6C                   
1 29505U 06046A   16092.44510768  .00000170  00000-0  21296-4 0  9992
2 29505  97.8057  90.5787 0004175 104.1469 256.0174 14.94121899513908
SJ-6D                   
1 29506U 06046B   16092.50445971 -.00000130  00000-0 -70603-5 0  9998
2 29506  97.8236  89.6608 0002396 148.7523 211.3820 14.93086687513644
AGILE                   
1 31135U 07013A   16092.07764980  .00004298  00000-0  11393-3 0  9996
2 31135   2.4682 306.8512 0013876 326.8566  33.0619 15.27743373495937
AIM                     
1 31304U 07015A   16092.45863490  .00002459  00000-0  15282-3 0  9992
2 31304  97.9583 246.0381 0005357 186.5166 173.5994 15.10665444488218
FGRST (GLAST)           
1 33053U 08029A   16092.44930728  .00000932  00000-0  37663-4 0  9991
2 33053  25.5818 129.1429 0012359 212.7311 147.2458 15.10526472430449
IBEX                    
1 33401U 08051A   16091.61915014 -.00002623  00000-0  00000+0 0  9992
2 33401  34.7928  31.4900 5927138 151.1375 358.5142  0.11247307  3153
WISE                    
1 36119U 09071A   16092.09460987  .00002282  00000-0  89326-4 0  9994
2 36119  97.4872 113.0707 0004536  82.8041 277.3713 15.26852100348789
SDO                     
1 36395U 10005A   16091.37676880 -.00000067  00000-0  00000+0 0  9997
2 36395  28.3324 148.4377 0001919 182.5894 251.6377  1.00275212 22635
CRYOSAT 2               
1 36508U 10013A   16092.53187260  .00000056  00000-0  12982-4 0  9994
2 36508  92.0229  95.5992 0009698  54.9203 305.2913 14.52173695317065
PICARD                  
1 36598U 10028A   16092.52857821  .00000079  00000-0  31497-4 0  9992
2 36598  98.3097 277.8538 0000209 312.7613  47.3572 14.50433479306730
SPEKTR-R                
1 37755U 11037A   16091.41028187 -.00007822  00000-0  00000+0 0  9996
2 37755  38.8255  45.7767 9318024 260.5904   2.5200  0.11364580  2019
GCOM-W1 (SHIZUKU)       
1 38337U 12025A   16091.79516133  .00000182  00000-0  50365-4 0  9990
2 38337  98.2010  32.4163 0001472  81.5925 337.5622 14.57098499205943
NUSTAR                  
1 38358U 12031A   16092.09487401  .00001540  00000-0  90539-4 0  9995
2 38358   6.0270 276.8563 0011524  46.9723 313.1370 14.87301334206500
RBSP A                  
1 38752U 12046A   16091.86513055 -.00000144  00000-0 -89296-3 0  9996
2 38752  10.1801  35.9023 6810000  98.1746 338.0190  2.68105581 35020
RBSP B                  
1 38753U 12046B   16092.25655848 -.00000111  00000-0 -89230-3 0  9990
2 38753  10.1702  41.8900 6825522  86.5589 342.9826  2.65111656 34848
NEOSSAT                 
1 39089U 13009D   16091.55933015  .00000027  00000-0  25290-4 0  9991
2 39089  98.5876 292.7014 0011342 163.8232 196.3317 14.34330349161940
BRITE-AUSTRIA           
1 39091U 13009F   16092.17993018  .00000051  00000-0  33594-4 0  9995
2 39091  98.5856 294.3888 0010608 172.2723 187.8627 14.34963847162104
UNIBRITE                
1 39092U 13009G   16092.14034905  .00000031  00000-0  26574-4 0  9992
2 39092  98.5860 294.1008 0009632 164.7231 195.4247 14.34836494162084
IRIS                    
1 39197U 13033A   16092.50529726  .00000349  00000-0  55019-4 0  9993
2 39197  97.9145 275.2578 0028442 161.4426 198.7829 14.78166711148858
HISAKI (SPRINT-A)       
1 39253U 13049A   16092.17251674  .00000108  00000-0  62095-4 0  9995
2 39253  29.7190  90.2922 0137226  38.0315 322.9856 13.55152786126240
CASSIOPE                
1 39265U 13055A   16092.08401683  .00006408  00000-0  19016-3 0  9995
2 39265  80.9696 111.0671 0707699  88.6890 279.5194 14.18359211128721
DANDE                   
1 39267U 13055C   16092.20937598  .00004023  00000-0  12067-3 0  9990
2 39267  81.0113 116.3480 0728661  97.7710 270.6758 14.13577520128503
STSAT-3                 
1 39422U 13066G   16092.39455060  .00000462  00000-0  54521-4 0  9999
2 39422  97.7079 161.5307 0021545 256.0988 103.7822 14.89145390128175
BRITE-PL                
1 39431U 13066R   16091.56083176  .00000277  00000-0  68866-4 0  9993
2 39431  97.6805 103.6170 0204085  46.7143 315.0874 14.46689965124451
SWARM B                 
1 39451U 13067A   16091.83720380  .00001109  00000-0  49238-4 0  9998
2 39451  87.7570  20.1273 0001905  73.5995 286.5459 15.20466219130623
SWARM A                 
1 39452U 13067B   16092.50527739  .00002299  00000-0  55749-4 0  9992
2 39452  87.3499 331.2131 0002065  89.6461 270.5031 15.40462065132104
SWARM C                 
1 39453U 13067C   16091.79066193  .00002612  00000-0  63493-4 0  9999
2 39453  87.3502 332.8820 0002015  87.6231 272.5255 15.40459011131959
BRITE-TORONTO           
1 40020U 14033L   16092.52876357  .00000199  00000-0  43198-4 0  9996
2 40020  97.8989 335.4905 0086548 291.1754  68.0219 14.66229878 95369
OCO 2                   
1 40059U 14035A   16091.50696058  .00000152  00000-0  43811-4 0  9996
2 40059  98.2094  33.3636 0000834  90.2556 269.8738 14.57117879 92923
BRITE-PL 2              
1 40119U 14049B   16092.44074634  .00000345  00000-0  48045-4 0  9990
2 40119  97.9626 173.9954 0019126  90.4203 269.9202 14.83871058 87641
RESURS P2               
1 40360U 14087A   16092.54841435  .00001833  00000-0  62109-4 0  9992
2 40360  97.2808 187.6621 0007168 139.5248  38.0314 15.31818401 70765
MMS 1                   
1 40482U 15011A   16091.17555006  .00000000  00000-0  10000-3 0  9996
2 40482  28.6921 348.4638 8157223  89.3620 351.4873  1.00487142  3865
MMS 2                   
1 40483U 15011B   16091.67777778 -.00000155  00000-0  00000+0 0  9991
2 40483  28.6679 348.3841 8161629  89.4767 173.2274  1.00490884  3861
MMS 3                   
1 40484U 15011C   16091.66527778 -.00000156  00000-0  00000+0 0  9995
2 40484  28.6643 348.3923 8157625  89.4410 168.7643  1.00490870  3864
MMS 4                   
1 40485U 15011D   16091.71207668 -.00000155  00000-0  00000+0 0  9994
2 40485  28.6875 348.3780 8158302  89.4724 185.6585  1.00491044  3861
ASTROSAT                
1 40930U 15052A   16092.23013133  .00000900  00000-0  36924-4 0  9990
2 40930   5.9936 144.1622 0012257 105.3336 254.8115 14.76304226 27547
DAMPE                   
1 41173U 15078A   16092.49950711  .00000422  00000-0  20683-4 0  9992
2 41173  97.2980 106.9424 0012097 273.5004 240.6287 15.23319926 16219
ASTRO-H (HITOMI)        
1 41337U 16012A   16092.19314741  .00000675  00000-0  48787-4 0  9992
2 41337  31.0074  39.0006 0012339 356.3890   3.6644 14.97998095  6588
